NORAD_CAT_ID,OBJECT_NAME,OBJECT_TYPE,EPOCH,MEAN_MOTION,ECCENTRICITY,INCLINATION,RA_OF_ASC_NODE,ARG_OF_PERICENTER,MEAN_ANOMALY,BSTAR,MEAN_MOTION_DOT,MEAN_MOTION_DDOT,TLE_LINE0,TLE_LINE1,TLE_LINE2,SEMIMAJOR_AXIS,PERIOD,APOGEE,PERIGEE,DECAYED
52845.0,STARLINK-4168,PAYLOAD,2022-12-05 06:01:57,15.08846561,0.0003034,53.2194,338.2219,25.4694,334.6447,-3.2368e-05,-8.04e-06,0.0,0 STARLINK-4168,1 52845U 22062R   22339.25136412 -.00000804  00000-0 -32368-4 0  9999,2 52845  53.2194 338.2219 0003034  25.4694 334.6447 15.08846561 26078,6917.86,95.437,541.8240000000002,537.626,0.0
52845.0,STARLINK-4168,PAYLOAD,2022-12-05 17:09:39,15.088452800000002,0.0003134,53.2188,336.1392,31.8399,328.2782,0.00011025,1.467e-05,0.0,0 STARLINK-4168,1 52845U 22062R   22339.71504097  .00001467  00000-0  11025-3 0  9998,2 52845  53.2188 336.1392 0003134  31.8399 328.2782 15.08845280 26140,6917.864000000001,95.437,541.8969999999998,537.561,0.0
52845.0,STARLINK-4168,PAYLOAD,2022-12-06 05:52:44,15.08843274,0.0003025,53.2181,333.76,31.1351,328.982,0.00011962,1.616e-05,0.0,0 STARLINK-4168,1 52845U 22062R   22340.24496030  .00001616  00000-0  11962-3 0  9991,2 52845  53.2181 333.7600 0003025  31.1351 328.9820 15.08843274 26712,6917.87,95.437,541.828,537.643,0.0
52845.0,STARLINK-4168,PAYLOAD,2022-12-06 07:28:07,15.08844211,0.000298,53.2185,333.4628,32.6301,327.4875,0.00012561,1.711e-05,0.0,0 STARLINK-4168,1 52845U 22062R   22340.31119956  .00001711  00000-0  12561-3 0  9990,2 52845  53.2185 333.4628 0002980  32.6301 327.4875 15.08844211 26236,6917.868,95.437,541.794,537.6709999999998,0.0
52845.0,STARLINK-4168,PAYLOAD,2022-12-06 17:00:26,15.08839708,0.0003092,53.2193,331.6793,32.6155,327.5028,2.0749e-05,4.2e-07,0.0,0 STARLINK-4168,1 52845U 22062R   22340.70864533  .00000042  00000-0  20749-4 0  9995,2 52845  53.2193 331.6793 0003092  32.6155 327.5028 15.08839708 26292,6917.880999999999,95.438,541.885,537.607,0.0
52845.0,STARLINK-4168,PAYLOAD,2022-12-07 10:29:41,15.08838229,0.0003054,53.218,328.408,30.0564,330.0603,1.7865999999999998e-05,-4e-08,0.0,0 STARLINK-4168,1 52845U 22062R   22341.43728689 -.00000004  00000-0  17866-4 0  9992,2 52845  53.2180 328.4080 0003054  30.0564 330.0603 15.08838229 26896,6917.886,95.438,541.864,537.638,0.0
52845.0,STARLINK-4168,PAYLOAD,2022-12-07 16:51:13,15.08845789,0.000283,53.2177,327.2182,28.8309,331.2839,3.2636e-05,2.31e-06,0.0,0 STARLINK-4168,1 52845U 22062R   22341.70224059  .00000231  00000-0  32636-4 0  9997,2 52845  53.2177 327.2182 0002830  28.8309 331.2839 15.08845789 26933,6917.863,95.437,541.685,537.77,0.0
52845.0,STARLINK-4168,PAYLOAD,2022-12-08 10:20:27,15.08847801,0.0003052,53.2179,323.9481,30.1695,329.9472,9.0655e-05,1.155e-05,0.0,0 STARLINK-4168,1 52845U 22062R   22342.43087814  .00001155  00000-0  90655-4 0  9995,2 52845  53.2179 323.9481 0003052  30.1695 329.9472 15.08847801 26553,6917.857,95.437,541.8330000000002,537.61,0.0
52845.0,STARLINK-4168,PAYLOAD,2022-12-09 08:35:50,15.08854409,0.0002956,53.2175,319.7868,22.1199,337.992,9.6284e-05,1.245e-05,0.0,0 STARLINK-4168,1 52845U 22062R   22343.35822879  .00001245  00000-0  96284-4 0  9999,2 52845  53.2175 319.7868 0002956  22.1199 337.9920 15.08854409 27182,6917.8359999999975,95.437,541.746,537.656,0.0
52845.0,STARLINK-4168,PAYLOAD,2022-12-10 05:15:55,15.08818945,0.0002693,53.2174,315.9206,28.2624,331.8514,-0.00015318,-2.724e-05,0.0,0 STARLINK-4168,1 52845U 22062R   22344.21938885 -.00002724  00000-0 -15318-3 0  9993,2 52845  53.2174 315.9206 0002693  28.2624 331.8514 15.08818945 27315,6917.945,95.439,541.673,537.947,0.0
52845.0,STARLINK-4168,PAYLOAD,2022-12-10 06:51:18,15.0882029,0.0002901999999999,53.2176,315.6232,26.4594,333.6546,-0.00013507,-2.437e-05,0.0,0 STARLINK-4168,1 52845U 22062R   22344.28562894 -.00002437  00000-0 -13507-3 0  9992,2 52845  53.2176 315.6232 0002902  26.4594 333.6546 15.08820290 26839,6917.941,95.439,541.813,537.798,0.0
52845.0,STARLINK-4168,PAYLOAD,2022-12-11 05:06:40,15.08841984,0.0002613,53.2188,311.4626,30.7055,329.409,5.9829e-05,6.64e-06,0.0,0 STARLINK-4168,1 52845U 22062R   22345.21296960  .00000664  00000-0  59829-4 0  9990,2 52845  53.2188 311.4626 0002613  30.7055 329.4090 15.08841984 27462,6917.874,95.437,541.547,537.932,0.0
52845.0,STARLINK-4168,PAYLOAD,2022-12-11 08:17:26,15.08843819,0.0002837,53.2186,310.8633,25.0589,335.0541,8.3388e-05,1.039e-05,0.0,0 STARLINK-4168,1 52845U 22062R   22345.34544702  .00001039  00000-0  83388-4 0  9998,2 52845  53.2186 310.8633 0002837  25.0589 335.0541 15.08843819 26998,6917.869000000002,95.437,541.696,537.771,0.0
52845.0,STARLINK-4168,PAYLOAD,2022-12-12 03:22:04,15.08843905,0.0003295,53.2176,307.2942,21.7246,338.3885,0.00016436,2.328e-05,0.0,0 STARLINK-4168,1 52845U 22062R   22346.14033489  .00002328  00000-0  16436-3 0  9993,2 52845  53.2176 307.2942 0003295  21.7246 338.3885 15.08843905 27604,6917.868,95.437,542.013,537.4540000000002,0.0
52845.0,STARLINK-4168,PAYLOAD,2022-12-12 06:32:51,15.08835784,0.0002817,53.2173,306.7001,24.7887,335.324,0.00015977,2.255e-05,0.0,0 STARLINK-4168,1 52845U 22062R   22346.27281833  .00002255  00000-0  15977-3 0  9993,2 52845  53.2173 306.7001 0002817  24.7887 335.3240 15.08835784 27130,6917.893,95.438,541.707,537.81,0.0
52845.0,STARLINK-4168,PAYLOAD,2022-12-13 07:59:01,15.08849175,0.0002938,53.2182,301.9416,26.3953,333.7188,0.00010941,1.454e-05,0.0,0 STARLINK-4168,1 52845U 22062R   22347.33265184  .00001454  00000-0  10941-3 0  9998,2 52845  53.2182 301.9416 0002938  26.3953 333.7188 15.08849175 27786,6917.852,95.437,541.75,537.685,0.0
52845.0,STARLINK-4168,PAYLOAD,2022-12-13 14:20:33,15.08848945,0.0002881,53.2179,300.7522,26.8441,333.2699,6.572e-05,7.58e-06,0.0,0 STARLINK-4168,1 52845U 22062R   22347.59761126  .00000758  00000-0  65720-4 0  9995,2 52845  53.2179 300.7522 0002881  26.8441 333.2699 15.08848945 27338,6917.853,95.437,541.711,537.725,0.0
52845.0,STARLINK-4168,PAYLOAD,2022-12-14 03:03:38,15.08841726,0.000282,53.2176,298.3724,29.1971,330.9179,0.00010482,1.3800000000000008e-05,0.0,0 STARLINK-4168,1 52845U 22062R   22348.12753289  .00001380  00000-0  10482-3 0  9992,2 52845  53.2176 298.3724 0002820  29.1971 330.9179 15.08841726 27908,6917.875,95.437,541.691,537.789,0.0
52845.0,STARLINK-4168,PAYLOAD,2022-12-14 06:14:25,15.08838553,0.0002566999999999,53.2179,297.7778,29.0714,331.0421,7.0203e-05,8.29e-06,0.0,0 STARLINK-4168,1 52845U 22062R   22348.26001551  .00000829  00000-0  70203-4 0  9990,2 52845  53.2179 297.7778 0002567  29.0714 331.0421 15.08838553 27439,6917.885,95.438,541.526,537.974,0.0
52845.0,STARLINK-4168,PAYLOAD,2022-12-14 14:11:20,15.08842408,0.0002833999999999,53.2181,296.2916,27.6604,332.4538,9.3172e-05,1.195e-05,0.0,0 STARLINK-4168,1 52845U 22062R   22348.59121318  .00001195  00000-0  93172-4 0  9997,2 52845  53.2181 296.2916 0002834  27.6604 332.4538 15.08842408 27482,6917.873000000001,95.437,541.6990000000002,537.778,0.0
52845.0,STARLINK-4168,PAYLOAD,2022-12-15 06:05:12,15.08841931,0.0002949,53.2183,293.3202,26.1652,333.9489,-1.7964e-05,-5.75e-06,0.0,0 STARLINK-4168,1 52845U 22062R   22349.25361596 -.00000575  00000-0 -17964-4 0  9993,2 52845  53.2183 293.3202 0002949  26.1652 333.9489 15.08841931 28071,6917.874,95.437,541.78,537.6990000000002,0.0
52845.0,STARLINK-4168,PAYLOAD,2022-12-15 20:23:39,15.08846772,0.0002953,53.218,290.6436,24.53,335.5832,0.00010204,1.336e-05,0.0,0 STARLINK-4168,1 52845U 22062R   22349.84976829  .00001336  00000-0  10204-3 0  9992,2 52845  53.2180 290.6436 0002953  24.5300 335.5832 15.08846772 27677,6917.86,95.437,541.768,537.682,0.0
52845.0,STARLINK-4168,PAYLOAD,2022-12-16 01:09:49,15.08849393,0.0002975,53.218,289.7518,24.211,335.9022,0.00014801,2.068e-05,0.0,0 STARLINK-4168,1 52845U 22062R   22350.04848577  .00002068  00000-0  14801-3 0  9994,2 52845  53.2180 289.7518 0002975  24.2110 335.9022 15.08849393 28192,6917.852,95.437,541.775,537.659,0.0
52845.0,STARLINK-4168,PAYLOAD,2022-12-16 05:55:58,15.08850583,0.0003021,53.2169,288.8598,23.991,336.1222,0.00022601,3.311e-05,0.0,0 STARLINK-4168,1 52845U 22062R   22350.24720839  .00003311  00000-0  22601-3 0  9995,2 52845  53.2169 288.8598 0003021  23.9910 336.1222 15.08850583 27731,6917.848000000001,95.437,541.803,537.623,0.0
52845.0,STARLINK-4168,PAYLOAD,2022-12-16 20:14:27,15.08841627,0.0002985,53.2153,286.1827,25.2278,334.8859,7.906100000000001e-05,9.7e-06,0.0,0 STARLINK-4168,1 52845U 22062R   22350.84337173  .00000970  00000-0  79061-4 0  9997,2 52845  53.2153 286.1827 0002985  25.2278 334.8859 15.08841627 28315,6917.875,95.437,541.805,537.675,0.0
52845.0,STARLINK-4168,PAYLOAD,2022-12-17 05:46:46,15.08834315,0.0002985,53.2178,284.3995,22.2765,337.8356,-3.6869e-05,-8.75e-06,0.0,0 STARLINK-4168,1 52845U 22062R   22351.24081875 -.00000875  00000-0 -36869-4 0  9992,2 52845  53.2178 284.3995 0002985  22.2765 337.8356 15.08834315 27888,6917.898,95.438,541.828,537.698,0.0
52845.0,STARLINK-4168,PAYLOAD,2022-12-17 20:05:15,15.08831961,0.0002984,53.2169,281.7231,25.2723,334.8414,-7.4912e-05,-1.481e-05,0.0,0 STARLINK-4168,1 52845U 22062R   22351.83698452 -.00001481  00000-0 -74912-4 0  9997,2 52845  53.2169 281.7231 0002984  25.2723 334.8414 15.08831961 27974,6917.905,95.438,541.8340000000002,537.706,0.0
52845.0,STARLINK-4168,PAYLOAD,2022-12-18 11:59:05,15.08848413,0.0002998,53.2174,278.7494,28.1433,331.9721,8.7755e-05,1.109e-05,0.0,0 STARLINK-4168,1 52845U 22062R   22352.49937163  .00001109  00000-0  87755-4 0  9999,2 52845  53.2174 278.7494 0002998  28.1433 331.9721 15.08848413 28567,6917.855,95.437,541.794,537.646,0.0
52845.0,STARLINK-4168,PAYLOAD,2022-12-19 00:42:11,15.08840211,0.0002737,53.2182,276.3708,30.6174,329.4977,0.00016348,2.314e-05,0.0,0 STARLINK-4168,1 52845U 22062R   22353.02929743  .00002314  00000-0  16348-3 0  9992,2 52845  53.2182 276.3708 0002737  30.6174 329.4977 15.08840211 28641,6917.88,95.438,541.638,537.851,0.0
